SITRO-AIS 30            
1 59053U 24039C   24315.47271860  .00095332  00000+0  21974-2 0  9996
2 59053  97.4059 277.5896 0017285  64.9452 295.3587 15.42076485 39008
SITRO-AIS 31            
1 59054U 24039D   24315.44583427  .00099972  00000+0  22764-2 0  9991
2 59054  97.4061 277.6260 0017024  64.8575 295.4436 15.42428407 39025
SITRO-AIS 33            
1 59055U 24039E   24315.29653357  .00101002  00000+0  22930-2 0  9998
2 59055  97.4065 277.5317 0016873  66.1787 294.1227 15.42516313 38996
SITRO-AIS 35            
1 59056U 24039F   24315.22664292  .00104466  00000+0  23672-2 0  9993
2 59056  97.4063 277.4676 0016738  66.8946 293.4063 15.42560950 38981
SITRO-AIS 32            
1 59057U 24039G   24315.44392854  .00096620  00000+0  22123-2 0  9992
2 59057  97.4068 277.6406 0016883  66.1801 294.1214 15.42278425 39018
SITRO-AIS 34            
1 59058U 24039H   24315.29605255  .00100207  00000+0  22732-2 0  9991
2 59058  97.4064 277.5342 0016790  66.3334 293.9673 15.42543931 38992
SITRO-AIS 36            
1 59059U 24039J   24315.47258632  .00097465  00000+0  22025-2 0  9991
2 59059  97.4061 277.7503 0016636  66.0930 294.2058 15.42673210 39029
SITRO-AIS 49            
1 59060U 24039K   24315.22471897  .00096435  00000+0  22018-2 0  9994
2 59060  97.4068 277.4735 0016651  66.3362 293.9630 15.42368482 38989
SITRO-AIS 50            
1 59061U 24039L   24315.44885863  .00100710  00000+0  22538-2 0  9990
2 59061  97.4064 277.7795 0016473  65.4257 294.8705 15.42953447 39020
SITRO-AIS 51            
1 59062U 24039M   24315.51274139  .00084407  00000+0  18902-2 0  9991
2 59062  97.4061 277.8455 0016384  65.9369 294.3590 15.43001712 39030
SITRO-AIS 52            
1 59063U 24039N   24315.56081351  .00086304  00000+0  19244-2 0  9997
2 59063  97.4061 277.9378 0016266  65.9586 294.3361 15.43124025 39046
SITRO-AIS 25            
1 59066U 24039R   24315.45192825  .00013711  00000+0  12362-2 0  9993
2 59066  95.3891 196.5260 0162925 198.2601 161.2730 14.85928955 37808
SITRO-AIS 26            
1 59067U 24039S   24315.45798752  .00014135  00000+0  12779-2 0  9998
2 59067  95.3889 196.5197 0163082 198.3209 161.2097 14.85805243 37805
SITRO-AIS 27            
1 59068U 24039T   24315.42851043  .00015494  00000+0  13928-2 0  9995
2 59068  95.3893 196.5527 0162475 198.0494 161.4919 14.86071773 37805
SITRO-AIS 28            
1 59071U 24039U   24315.42144840  .00014912  00000+0  13396-2 0  9992
2 59071  95.3891 196.5616 0162336 198.0413 161.5007 14.86115509 37808
GRBBETA                 
1 60237U 24128C   24315.09805727  .00016978  00000+0  13896-2 0  9997
2 60237  61.9926  95.0751 0025485   1.3999 358.7157 14.99219135 18453
OOV-CUBE (TUBSAT-30)    
1 60240U 24128F   24315.09923000  .00011851  00000+0  10084-2 0  9997
2 60240  61.9968  95.6763 0023550 356.1276   3.9627 14.97980256 18450
ROBUSTA-3A (MEDITERRAN*)
1 60243U 24128J   24314.82087049  .00032297  00000+0  26249-2 0  9991
2 60243  61.9906  96.4510 0023776 348.0685  11.9838 14.99221234 18413
BEIJING 1               
1 28890U 05043A   24315.43211824  .00001959  00000+0  39325-3 0  9997
2 28890  98.2186  77.4118 0013885 311.9657  48.0361 14.62751798 15264
HUANJING 1A (HJ-1A)     
1 33320U 08041A   24315.48731797  .00007357  00000+0  94679-3 0  9994
2 33320  97.6355 315.4181 0018116 251.9710 107.9530 14.81269243872005
HUANJING 1B (HJ-1B)     
1 33321U 08041B   24315.47682543  .00005586  00000+0  71571-3 0  9996
2 33321  97.6278 319.8709 0036328 299.0215  60.7360 14.81206893872023
YAOGAN-4                
1 33446U 08061A   24315.16667081  .00006061  00000+0  78889-3 0  9990
2 33446  97.8881 244.4120 0015003 165.2238 194.9416 14.80911995859155
DEIMOS-1                
1 35681U 09041A   24315.45946514  .00003583  00000+0  55295-3 0  9997
2 35681  97.6839 129.6585 0000211   5.7088 354.4123 14.73931949820850
UK-DMC 2                
1 35683U 09041C   24315.45569236  .00004621  00000+0  70677-3 0  9996
2 35683  97.8016  97.3459 0001274  78.8016 281.3337 14.74204742820551
DMC3-FM1                
1 40715U 15032A   24315.41633658  .00003839  00000+0  46297-3 0  9992
2 40715  97.7250 189.9097 0005941 158.6122 201.5342 14.84371856503266
DMC3-FM2                
1 40716U 15032B   24315.43859014  .00003374  00000+0  40758-3 0  9991
2 40716  97.7305 191.0989 0007620 166.6125 193.5293 14.84367986503264
DMC3-FM3                
1 40717U 15032C   24315.47226341  .00003847  00000+0  46482-3 0  9992
2 40717  97.7355 192.4769 0009128 165.6673 194.4803 14.84273063503273
NOAA 15                 
1 25338U 98030A   24315.46269958  .00000822  00000+0  35691-3 0  9993
2 25338  98.5571 339.4741 0009188 255.5438 104.4724 14.26791622378298
DMSP 5D-3 F16 (USA 172) 
1 28054U 03048A   24315.49074115  .00000796  00000+0  44131-3 0  9997
2 28054  99.0218 323.3585 0007394   7.6793 147.7344 14.14195832 86950
NOAA 18                 
1 28654U 05018A   24315.47126947  .00000839  00000+0  46937-3 0  9995
2 28654  98.8637  31.1541 0014241  12.7253 347.4276 14.13416115  3929
METEOSAT-9 (MSG-2)      
1 28912U 05049B   24311.89830230  .00000140  00000+0  00000+0 0  9997
2 28912   8.0159  59.6285 0002204 182.6858 173.5120  1.00277258  1112
EWS-G1 (GOES 13)        
1 29155U 06018A   24314.91149973  .00000030  00000+0  00000+0 0  9995
2 29155   3.0039  83.5042 0063031 256.3682 299.2471  0.98828337 37479
DMSP 5D-3 F17 (USA 191) 
1 29522U 06050A   24315.46278007  .00000855  00000+0  46714-3 0  9992
2 29522  98.7437 323.0365 0009018 284.4959  75.5214 14.14658707929873
FENGYUN 3A              
1 32958U 08026A   24315.18625090  .00000859  00000+0  42986-3 0  9992
2 32958  98.6219 258.1992 0009160  18.5610 341.5898 14.19274466852666
NOAA 19                 
1 33591U 09005A   24315.44393397  .00000763  00000+0  43175-3 0  9990
2 33591  99.0292  12.6714 0013012 237.5206 122.4708 14.13195343812286
GOES 14                 
1 35491U 09033A   24314.98117788 -.00000057  00000+0  00000+0 0  9991
2 35491   0.1613  91.9726 0003461 105.7937  96.5361  1.00271428 56292
DMSP 5D-3 F18 (USA 210) 
1 35951U 09057A   24315.50155315  .00000953  00000+0  52072-3 0  9999
2 35951  98.8340 289.0353 0012104 107.7724 252.4771 14.14377324777042
EWS-G2 (GOES 15)        
1 36411U 10008A   24315.44381638  .00000045  00000+0  00000+0 0  9993
2 36411   0.2200 273.3718 0007004 326.2134  31.8234  1.00275307 53772
COMS 1                  
1 36744U 10032A   24314.95667760 -.00000333  00000+0  00000+0 0  9998
2 36744   3.3212  82.9143 0000931 158.8767 280.4249  1.00270307 52791
FENGYUN 3B              
1 37214U 10059A   24315.49194013  .00000534  00000+0  30077-3 0  9999
2 37214  99.0419 345.5484 0022787  41.3617  62.5673 14.14619083724933
SUOMI NPP               
1 37849U 11061A   24315.43867907  .00000576  00000+0  29392-3 0  9994
2 37849  98.7355 251.2861 0001335 125.8720 234.2581 14.19559854675613
FENGYUN 2F              
1 38049U 12002A   24314.60753104 -.00000199  00000+0  00000+0 0  9997
2 38049   6.1004  72.5378 0002531 151.0810 214.3441  0.99140918 47018
METEOSAT-10 (MSG-3)     
1 38552U 12035B   24314.85971896  .00000005  00000+0  00000+0 0  9994
2 38552   3.2962  61.7001 0001071 225.4087  71.9531  1.00273334 44994
METOP-B                 
1 38771U 12049A   24315.43976771  .00000758  00000+0  36545-3 0  9996
2 38771  98.6097   9.2496 0001264  82.1458 277.9863 14.21581490630329
INSAT-3D                
1 39216U 13038B   24315.38586708 -.00000330  00000+0  00000+0 0  9991
2 39216   0.4093  90.8461 0001947 156.6502  70.9435  1.00272077 41451
FENGYUN 3C              
1 39260U 13052A   24315.26713600  .00000598  00000+0  32205-3 0  9997
2 39260  98.4388 307.2067 0009906 265.6025  94.4019 14.16340935576008
METEOR-M 2              
1 40069U 14037A   24315.41475961  .00000848  00000+0  40938-3 0  9992
2 40069  98.4497 303.2192 0004724 300.5016  59.5696 14.21132146536395
HIMAWARI-8              
1 40267U 14060A   24314.88769448 -.00000266  00000+0  00000+0 0  9991
2 40267   0.0385 103.5134 0000805 139.6316 266.6602  1.00270292 36905
FENGYUN 2G              
1 40367U 14090A   24314.95103036 -.00000291  00000+0  00000+0 0  9996
2 40367   4.1482  79.8490 0001992 179.1884 232.6282  1.00272131 36187
METEOSAT-11 (MSG-4)     
1 40732U 15034A   24314.86154345  .00000072  00000+0  00000+0 0  9996
2 40732   1.7397  71.2659 0001297 177.3682 120.2427  1.00272680  1351
ELEKTRO-L 2             
1 41105U 15074A   24315.21427815 -.00000104  00000+0  00000+0 0  9997
2 41105   5.2114  77.6772 0003576 179.7099 215.1249  1.00272363 32660
INSAT-3DR               
1 41752U 16054A   24315.08890965 -.00000068  00000+0  00000+0 0  9998
2 41752   0.1038  91.8365 0013708 173.9972 249.9201  1.00270916 29949
HIMAWARI-9              
1 41836U 16064A   24315.58175365 -.00000265  00000+0  00000+0 0  9996
2 41836   0.0471 147.4137 0000833  67.5452 185.4802  1.00272815 29450
GOES 16                 
1 41866U 16071A   24314.84477552 -.00000239  00000+0  00000+0 0  9999
2 41866   0.0199 276.3392 0000964  12.0926 350.0062  1.00269634 29241
FENGYUN 4A              
1 41882U 16077A   24314.85586072 -.00000189  00000+0  00000+0 0  9996
2 41882   0.8257  85.8196 0009280 340.0260  18.2804  1.00273621 29060
CYGFM05                 
1 41884U 16078A   24315.51068393  .00031075  00000+0  96319-3 0  9993
2 41884  34.9610  91.5618 0010688  93.4397 266.7543 15.32403938438598
CYGFM04                 
1 41885U 16078B   24314.75500266  .00044296  00000+0  13257-2 0  9997
2 41885  34.9373  78.8489 0009803 102.3573 257.8242 15.33453480438485
CYGFM02                 
1 41886U 16078C   24315.46136241  .00083763  00000+0  24348-2 0  9990
2 41886  34.9457  76.1857 0012169 101.7856 258.4227 15.34170152438758
